ONEWEB-0215             
1 48800U 21045AK  26057.13689047  .00000189  00000+0  46733-3 0  9993
2 48800  87.8963 281.3463 0001655 113.6466 246.4838 13.15547217229693
ONEWEB-0216             
1 48801U 21045AL  26057.14638627  .00000192  00000+0  47651-3 0  9997
2 48801  87.8950 281.3654 0001417  87.1314 272.9978 13.15546686229705
ONEWEB-0239             
1 48802U 21045AM  26057.15114328  .00000137  00000+0  32878-3 0  9990
2 48802  87.8950 281.3784 0001943 112.6505 247.4831 13.15546735229744
ONEWEB-0249             
1 48967U 21060A   26057.24932442 -.00000015  00000+0 -73890-4 0  9991
2 48967  87.9006 250.8518 0001703  97.4821 262.6503 13.16592885225019
ONEWEB-0250             
1 48968U 21060B   26056.53948547  .00000082  00000+0  15751-3 0  9999
2 48968  87.8995 249.1123 0002676  95.1349 265.0092 13.25826643225426
ONEWEB-0252             
1 48970U 21060D   26057.05220075  .00000155  00000+0  37159-3 0  9996
2 48970  87.9000 250.8836 0001329  93.6973 266.4310 13.16592631225039
ONEWEB-0253             
1 48971U 21060E   26057.26910904 -.00000144  00000+0 -41002-3 0  9999
2 48971  87.8998 250.8456 0001602  98.9870 261.1443 13.16593004224999
ONEWEB-0254             
1 48972U 21060F   26057.27860828  .00000060  00000+0  12349-3 0  9997
2 48972  87.9009 250.8379 0001735 103.0891 257.0434 13.16592261224994
ONEWEB-0255             
1 48973U 21060G   26057.24061812 -.00000010  00000+0 -60788-4 0  9999
2 48973  87.8996 250.8554 0001674 100.5875 259.5445 13.16593632225061
ONEWEB-0256             
1 48974U 21060H   26056.96274982  .00000019  00000+0  15829-4 0  9995
2 48974  87.8997 250.9177 0001517  90.0118 270.1186 13.16592138224996
ONEWEB-0257             
1 48975U 21060J   26056.91920479  .00000056  00000+0  11252-3 0  9996
2 48975  87.9001 250.9104 0001536  99.0675 261.0630 13.16593061224946
ONEWEB-0258             
1 48976U 21060K   26057.22478135  .00000068  00000+0  14312-3 0  9992
2 48976  87.9000 250.8610 0001700  92.4433 267.6892 13.16593544224992
ONEWEB-0259             
1 48977U 21060L   26057.06644768  .00000186  00000+0  45343-3 0  9991
2 48977  87.9002 250.8916 0001666  96.5304 263.6016 13.16592708225005
ONEWEB-0260             
1 48978U 21060M   26057.05774171  .00000115  00000+0  26632-3 0  9995
2 48978  87.8999 250.8993 0001208  87.7849 272.3420 13.16593669224982
ONEWEB-0261             
1 48979U 21060N   26056.95165507 -.00000308  00000+0 -83929-3 0  9999
2 48979  87.8988 250.9213 0001512 107.5021 252.6275 13.16593408225024
ONEWEB-0262             
1 48980U 21060P   26057.23586280  .00000019  00000+0  17362-4 0  9994
2 48980  87.9000 250.8457 0001840  98.0525 262.0814 13.16593120225023
ONEWEB-0263             
1 48981U 21060Q   26057.03952772  .00000062  00000+0  12936-3 0  9995
2 48981  87.8999 250.8962 0001624 107.1999 252.9309 13.16592726224968
