[{"OBJECT_NAME":"ONEWEB-0215","OBJECT_ID":"2021-045AK","EPOCH":"2026-02-26T03:17:07.336608","MEAN_MOTION":13.15547217,"ECCENTRICITY":0.00016555,"INCLINATION":87.8963,"RA_OF_ASC_NODE":281.3463,"ARG_OF_PERICENTER":113.6466,"MEAN_ANOMALY":246.4838,"EPHEMERIS_TYPE":0,"CLASSIFICATION_TYPE":"U","NORAD_CAT_ID":48800,"ELEMENT_SET_NO":999,"REV_AT_EPOCH":22969,"BSTAR":0.00046732757,"MEAN_MOTION_DOT":1.89e-6,"MEAN_MOTION_DDOT":0},{"OBJECT_NAME":"ONEWEB-0216","OBJECT_ID":"2021-045AL","EPOCH":"2026-02-26T03:30:47.773728","MEAN_MOTION":13.15546686,"ECCENTRICITY":0.0001417,"INCLINATION":87.895,"RA_OF_ASC_NODE":281.3654,"ARG_OF_PERICENTER":87.1314,"MEAN_ANOMALY":272.9978,"EPHEMERIS_TYPE":0,"CLASSIFICATION_TYPE":"U","NORAD_CAT_ID":48801,"ELEMENT_SET_NO":999,"REV_AT_EPOCH":22970,"BSTAR":0.00047651228,"MEAN_MOTION_DOT":1.92e-6,"MEAN_MOTION_DDOT":0},{"OBJECT_NAME":"ONEWEB-0239","OBJECT_ID":"2021-045AM","EPOCH":"2026-02-26T03:37:38.779392","MEAN_MOTION":13.15546735,"ECCENTRICITY":0.00019439,"INCLINATION":87.895,"RA_OF_ASC_NODE":281.3784,"ARG_OF_PERICENTER":112.6505,"MEAN_ANOMALY":247.4831,"EPHEMERIS_TYPE":0,"CLASSIFICATION_TYPE":"U","NORAD_CAT_ID":48802,"ELEMENT_SET_NO":999,"REV_AT_EPOCH":22974,"BSTAR":0.00032877989,"MEAN_MOTION_DOT":1.37e-6,"MEAN_MOTION_DDOT":0},{"OBJECT_NAME":"ONEWEB-0249","OBJECT_ID":"2021-060A","EPOCH":"2026-02-26T05:59:01.629888","MEAN_MOTION":13.16592885,"ECCENTRICITY":0.00017034,"INCLINATION":87.9006,"RA_OF_ASC_NODE":250.8518,"ARG_OF_PERICENTER":97.4821,"MEAN_ANOMALY":262.6503,"EPHEMERIS_TYPE":0,"CLASSIFICATION_TYPE":"U","NORAD_CAT_ID":48967,"ELEMENT_SET_NO":999,"REV_AT_EPOCH":22501,"BSTAR":-7.3890124e-5,"MEAN_MOTION_DOT":-1.5e-7,"MEAN_MOTION_DDOT":0},{"OBJECT_NAME":"ONEWEB-0250","OBJECT_ID":"2021-060B","EPOCH":"2026-02-25T12:56:51.544608","MEAN_MOTION":13.25826643,"ECCENTRICITY":0.0002676,"INCLINATION":87.8995,"RA_OF_ASC_NODE":249.1123,"ARG_OF_PERICENTER":95.1349,"MEAN_ANOMALY":265.0092,"EPHEMERIS_TYPE":0,"CLASSIFICATION_TYPE":"U","NORAD_CAT_ID":48968,"ELEMENT_SET_NO":999,"REV_AT_EPOCH":22542,"BSTAR":0.00015751,"MEAN_MOTION_DOT":8.2e-7,"MEAN_MOTION_DDOT":0},{"OBJECT_NAME":"ONEWEB-0252","OBJECT_ID":"2021-060D","EPOCH":"2026-02-26T01:15:10.144800","MEAN_MOTION":13.16592631,"ECCENTRICITY":0.00013294,"INCLINATION":87.9,"RA_OF_ASC_NODE":250.8836,"ARG_OF_PERICENTER":93.6973,"MEAN_ANOMALY":266.431,"EPHEMERIS_TYPE":0,"CLASSIFICATION_TYPE":"U","NORAD_CAT_ID":48970,"ELEMENT_SET_NO":999,"REV_AT_EPOCH":22503,"BSTAR":0.00037159439,"MEAN_MOTION_DOT":1.55e-6,"MEAN_MOTION_DDOT":0},{"OBJECT_NAME":"ONEWEB-0253","OBJECT_ID":"2021-060E","EPOCH":"2026-02-26T06:27:31.021056","MEAN_MOTION":13.16593004,"ECCENTRICITY":0.00016028,"INCLINATION":87.8998,"RA_OF_ASC_NODE":250.8456,"ARG_OF_PERICENTER":98.987,"MEAN_ANOMALY":261.1443,"EPHEMERIS_TYPE":0,"CLASSIFICATION_TYPE":"U","NORAD_CAT_ID":48971,"ELEMENT_SET_NO":999,"REV_AT_EPOCH":22499,"BSTAR":-0.0004100154,"MEAN_MOTION_DOT":-1.44e-6,"MEAN_MOTION_DDOT":0},{"OBJECT_NAME":"ONEWEB-0254","OBJECT_ID":"2021-060F","EPOCH":"2026-02-26T06:41:11.755392","MEAN_MOTION":13.16592261,"ECCENTRICITY":0.0001735,"INCLINATION":87.9009,"RA_OF_ASC_NODE":250.8379,"ARG_OF_PERICENTER":103.0891,"MEAN_ANOMALY":257.0434,"EPHEMERIS_TYPE":0,"CLASSIFICATION_TYPE":"U","NORAD_CAT_ID":48972,"ELEMENT_SET_NO":999,"REV_AT_EPOCH":22499,"BSTAR":0.00012348515,"MEAN_MOTION_DOT":6.0e-7,"MEAN_MOTION_DDOT":0},{"OBJECT_NAME":"ONEWEB-0255","OBJECT_ID":"2021-060G","EPOCH":"2026-02-26T05:46:29.405568","MEAN_MOTION":13.16593632,"ECCENTRICITY":0.00016742,"INCLINATION":87.8996,"RA_OF_ASC_NODE":250.8554,"ARG_OF_PERICENTER":100.5875,"MEAN_ANOMALY":259.5445,"EPHEMERIS_TYPE":0,"CLASSIFICATION_TYPE":"U","NORAD_CAT_ID":48973,"ELEMENT_SET_NO":999,"REV_AT_EPOCH":22506,"BSTAR":-6.0787616e-5,"MEAN_MOTION_DOT":-1.0e-7,"MEAN_MOTION_DDOT":0},{"OBJECT_NAME":"ONEWEB-0256","OBJECT_ID":"2021-060H","EPOCH":"2026-02-25T23:06:21.584448","MEAN_MOTION":13.16592138,"ECCENTRICITY":0.0001517,"INCLINATION":87.8997,"RA_OF_ASC_NODE":250.9177,"ARG_OF_PERICENTER":90.0118,"MEAN_ANOMALY":270.1186,"EPHEMERIS_TYPE":0,"CLASSIFICATION_TYPE":"U","NORAD_CAT_ID":48974,"ELEMENT_SET_NO":999,"REV_AT_EPOCH":22499,"BSTAR":1.5829148e-5,"MEAN_MOTION_DOT":1.9e-7,"MEAN_MOTION_DDOT":0},{"OBJECT_NAME":"ONEWEB-0257","OBJECT_ID":"2021-060J","EPOCH":"2026-02-25T22:03:39.293856","MEAN_MOTION":13.16593061,"ECCENTRICITY":0.00015365,"INCLINATION":87.9001,"RA_OF_ASC_NODE":250.9104,"ARG_OF_PERICENTER":99.0675,"MEAN_ANOMALY":261.063,"EPHEMERIS_TYPE":0,"CLASSIFICATION_TYPE":"U","NORAD_CAT_ID":48975,"ELEMENT_SET_NO":999,"REV_AT_EPOCH":22494,"BSTAR":0.00011251543,"MEAN_MOTION_DOT":5.6e-7,"MEAN_MOTION_DDOT":0},{"OBJECT_NAME":"ONEWEB-0258","OBJECT_ID":"2021-060K","EPOCH":"2026-02-26T05:23:41.108640","MEAN_MOTION":13.16593544,"ECCENTRICITY":0.00017005,"INCLINATION":87.9,"RA_OF_ASC_NODE":250.861,"ARG_OF_PERICENTER":92.4433,"MEAN_ANOMALY":267.6892,"EPHEMERIS_TYPE":0,"CLASSIFICATION_TYPE":"U","NORAD_CAT_ID":48976,"ELEMENT_SET_NO":999,"REV_AT_EPOCH":22499,"BSTAR":0.00014312237,"MEAN_MOTION_DOT":6.8e-7,"MEAN_MOTION_DDOT":0},{"OBJECT_NAME":"ONEWEB-0259","OBJECT_ID":"2021-060L","EPOCH":"2026-02-26T01:35:41.079552","MEAN_MOTION":13.16592708,"ECCENTRICITY":0.00016665,"INCLINATION":87.9002,"RA_OF_ASC_NODE":250.8916,"ARG_OF_PERICENTER":96.5304,"MEAN_ANOMALY":263.6016,"EPHEMERIS_TYPE":0,"CLASSIFICATION_TYPE":"U","NORAD_CAT_ID":48977,"ELEMENT_SET_NO":999,"REV_AT_EPOCH":22500,"BSTAR":0.00045342914,"MEAN_MOTION_DOT":1.86e-6,"MEAN_MOTION_DDOT":0},{"OBJECT_NAME":"ONEWEB-0260","OBJECT_ID":"2021-060M","EPOCH":"2026-02-26T01:23:08.883744","MEAN_MOTION":13.16593669,"ECCENTRICITY":0.00012083,"INCLINATION":87.8999,"RA_OF_ASC_NODE":250.8993,"ARG_OF_PERICENTER":87.7849,"MEAN_ANOMALY":272.342,"EPHEMERIS_TYPE":0,"CLASSIFICATION_TYPE":"U","NORAD_CAT_ID":48978,"ELEMENT_SET_NO":999,"REV_AT_EPOCH":22498,"BSTAR":0.00026631638,"MEAN_MOTION_DOT":1.15e-6,"MEAN_MOTION_DDOT":0},{"OBJECT_NAME":"ONEWEB-0261","OBJECT_ID":"2021-060N","EPOCH":"2026-02-25T22:50:22.998048","MEAN_MOTION":13.16593408,"ECCENTRICITY":0.00015123,"INCLINATION":87.8988,"RA_OF_ASC_NODE":250.9213,"ARG_OF_PERICENTER":107.5021,"MEAN_ANOMALY":252.6275,"EPHEMERIS_TYPE":0,"CLASSIFICATION_TYPE":"U","NORAD_CAT_ID":48979,"ELEMENT_SET_NO":999,"REV_AT_EPOCH":22502,"BSTAR":-0.0008392893,"MEAN_MOTION_DOT":-3.08e-6,"MEAN_MOTION_DDOT":0},{"OBJECT_NAME":"ONEWEB-0262","OBJECT_ID":"2021-060P","EPOCH":"2026-02-26T05:39:38.545920","MEAN_MOTION":13.1659312,"ECCENTRICITY":0.00018403,"INCLINATION":87.9,"RA_OF_ASC_NODE":250.8457,"ARG_OF_PERICENTER":98.0525,"MEAN_ANOMALY":262.0814,"EPHEMERIS_TYPE":0,"CLASSIFICATION_TYPE":"U","NORAD_CAT_ID":48980,"ELEMENT_SET_NO":999,"REV_AT_EPOCH":22502,"BSTAR":1.7361908e-5,"MEAN_MOTION_DOT":1.9e-7,"MEAN_MOTION_DDOT":0},{"OBJECT_NAME":"ONEWEB-0263","OBJECT_ID":"2021-060Q","EPOCH":"2026-02-26T00:56:55.195008","MEAN_MOTION":13.16592726,"ECCENTRICITY":0.0001624,"INCLINATION":87.8999,"RA_OF_ASC_NODE":250.8962,"ARG_OF_PERICENTER":107.1999,"MEAN_ANOMALY":252.9309,"EPHEMERIS_TYPE":0,"CLASSIFICATION_TYPE":"U","NORAD_CAT_ID":48981,"ELEMENT_SET_NO":999,"REV_AT_EPOCH":22496,"BSTAR":0.00012936,"MEAN_MOTION_DOT":6.2e-7,"MEAN_MOTION_DDOT":0}]
